STARLINK-34837          
1 65423U 25192V   25266.25003472 -.01656865  00000+0 -33480-1 0  9990
2 65423  53.1587 301.1071 0000767 100.1724 249.7909 15.49117650  4855
STARLINK-34670          
1 65424U 25192W   25266.25003472 -.00151872  00000+0 -27696-2 0  9991
2 65424  53.1584 301.0909 0001049  97.1708 260.4885 15.49373751  4852
STARLINK-35095          
1 65425U 25192X   25266.25003472 -.00145672  00000+0 -26546-2 0  9996
2 65425  53.1584 301.0832 0001206  92.5615 268.9346 15.49368090  4854
STARLINK-34883          
1 65426U 25192Y   25266.25003472 -.00150608  00000+0 -27462-2 0  9990
2 65426  53.1583 301.0861 0001210  99.4969 260.0814 15.49371297  4855
STARLINK-34916          
1 65427U 25192Z   25266.25003472 -.00156659  00000+0 -28590-2 0  9996
2 65427  53.1583 301.0791 0001172  98.5888 264.8233 15.49372672  4850
STARLINK-35004          
1 65428U 25192AA  25266.25003472 -.00140825  00000+0 -25647-2 0  9995
2 65428  53.1584 301.0632 0000894 100.9333 270.1440 15.49366066  4859
STARLINK-35014          
1 65429U 25192AB  25266.25003472 -.00098482  00000+0 -17840-2 0  9993
2 65429  53.1584 301.0703 0001346 100.7211 266.5568 15.49324528  4852
STARLINK-35025          
1 65430U 25192AC  25266.25003472 -.00133280  00000+0 -24248-2 0  9991
2 65430  53.1584 301.0746 0001171 102.4478 262.8803 15.49361335  4859
STARLINK-35034          
1 65431U 25192AD  25266.25003472 -.00147340  00000+0 -26856-2 0  9991
2 65431  53.1584 301.0671 0001054  90.7160 278.4454 15.49369518  4850
STARLINK-35142          
1 65434U 25194A   25266.19861965  .00032526  00000+0  83198-3 0  9998
2 65434  97.6014 117.7066 0001879  78.1984 281.9472 15.39367065  4340
STARLINK-34978          
1 65435U 25194B   25266.25003472 -.00082364  00000+0 -15262-2 0  9990
2 65435  97.6047 118.1896 0001579  90.5667  86.4842 15.49226965  3618
STARLINK-35043          
1 65436U 25194C   25266.25003472  .00294968  35901-4  79031-3 0  9992
2 65436  97.5919 118.6024 0000056 193.6296 189.6155 15.94456443  3671
STARLINK-35080          
1 65437U 25194D   25266.25003472 -.00074833  00000+0 -13855-2 0  9990
2 65437  97.6047 118.1924 0001572  83.2458  99.5720 15.49221121  3611
STARLINK-35068          
1 65438U 25194E   25266.25003472 -.00251275  00000+0 -47403-2 0  9994
2 65438  97.6029 118.1912 0001335 110.3516  68.5266 15.49345802  3617
STARLINK-35045          
1 65439U 25194F   25266.25003472 -.00131118  00000+0 -24457-2 0  9992
2 65439  97.6026 118.1921 0001628  84.3682  96.5393 15.49226663  3619
STARLINK-35050          
1 65440U 25194G   25266.25003472 -.00115793  00000+0 -21562-2 0  9999
2 65440  97.6026 118.1949 0001416  93.6179  93.0548 15.49218213  3616
STARLINK-35065          
1 65441U 25194H   25266.25003472 -.00249159  00000+0 -47009-2 0  9998
2 65441  97.6027 118.1940 0001715  95.0486  89.6170 15.49333659  3612
STARLINK-34679          
1 65442U 25194J   25266.25003472 -.00149958  00000+0 -28038-2 0  9996
2 65442  97.6028 118.1978 0001558  95.0424  95.4895 15.49229264  3662
STARLINK-34678          
1 65443U 25194K   25266.25003472 -.00332512  00000+0 -63282-2 0  9997
2 65443  97.6027 118.1991 0001327  96.9958  97.2583 15.49388538  3667
STARLINK-35049          
1 65444U 25194L   25266.25003472 -.00079722  00000+0 -14767-2 0  9993
2 65444  97.6049 118.1944 0001685  83.1443 105.4265 15.49226774  3611
STARLINK-35029          
1 65445U 25194M   25266.25003472 -.00061978  00000+0 -11455-2 0  9999
2 65445  97.6051 118.1961 0001535  92.2443 100.1711 15.49216970  3669
STARLINK-34991          
1 65446U 25194N   25266.25003472 -.00037419  00000+0 -68901-3 0  9992
2 65446  97.6051 118.1980 0001627  84.7171 111.5395 15.49204131  3612
STARLINK-34920          
1 65447U 25194P   25266.25003472 -.00143641  00000+0 -26834-2 0  9996
2 65447  97.6026 118.2001 0001670  80.7627 117.4410 15.49230021  3610
STARLINK-35030          
1 65448U 25194Q   25266.25003472 -.02152635  00000+0 -46548-1 0  9995
2 65448  97.6024 118.2007 0002267  96.4810 104.9367 15.48014562  3617
STARLINK-35009          
1 65449U 25194R   25266.25003472 -.00119697  00000+0 -22302-2 0  9998
2 65449  97.6029 118.2010 0001536  85.7148 114.4171 15.49215757  3619
STARLINK-34970          
1 65450U 25194S   25266.25003472 -.00350288  00000+0 -66804-2 0  9998
2 65450  97.6029 118.2022 0001409  91.2283 112.6432 15.49392442  3667
STARLINK-35039          
1 65451U 25194T   25266.25003472 -.00064513  00000+0 -11926-2 0  9997
2 65451  97.6023 118.2023 0001702  99.1341 106.7203 15.49222009  3673
STARLINK-35084          
1 65452U 25194U   25266.25003472 -.00184938  00000+0 -34681-2 0  9995
2 65452  97.6026 118.2045 0001824  88.7523 119.0204 15.49273350  3619
STARLINK-34988          
1 65453U 25194V   25266.25003472  .00348065  51711-4  77778-3 0  9992
2 65453  97.5922 118.6692 0000393 270.6198 262.2805 15.97814946  3664
STARLINK-35059          
1 65454U 25194W   25266.21920746  .00646227  00000+0  23029-2 0  9991
2 65454  97.5961 118.4734 0000885  11.3948 348.7343 15.87355393  4395
STARLINK-34728          
1 65455U 25194X   25266.25003472 -.00067787  00000+0 -12546-2 0  9996
2 65455  97.6025 118.2099 0001664  95.1564 120.3321 15.49201156  3664
STARLINK-35005          
1 65456U 25194Y   25266.25003472 -.00146794  00000+0 -27409-2 0  9997
2 65456  97.6024 118.2086 0001701  90.9121 122.6221 15.49255778  3667
STARLINK-35076          
1 65457U 25194Z   25266.21105665  .00083876  00000+0  15258-2 0  9999
2 65457  97.6021 118.1680 0001682  79.3256 280.8184 15.49219883  4373
STARLINK-34784          
1 65458U 25195A   25266.25003472  .00051105  00000+0  92121-3 0  9993
2 65458  53.1596 320.0999 0000669 114.3102  84.2232 15.49300068  3622
STARLINK-34867          
1 65459U 25195B   25266.25003472  .00008253  00000+0  15636-3 0  9996
2 65459  53.1598 320.0962 0000884  79.9389 120.5075 15.49296887  3629
STARLINK-34850          
1 65460U 25195C   25266.25003472 -.00069406  00000+0 -12494-2 0  9995
2 65460  53.1594 320.0919 0000783  81.6726 120.6815 15.49343962  3622
STARLINK-35159          
1 65461U 25195D   25266.25003472 -.00039652  00000+0 -70798-3 0  9998
2 65461  53.1596 320.0878 0000840  78.7497 125.5203 15.49330214  3682
STARLINK-35180          
1 65462U 25195E   25266.25003472 -.00074556  00000+0 -13434-2 0  9994
2 65462  53.1595 320.0843 0000813  79.1789 127.0100 15.49349091  3634
STARLINK-35111          
1 65463U 25195F   25266.25003472 -.00127806  00000+0 -23229-2 0  9995
2 65463  53.1596 320.0802 0001412  69.4539 138.6866 15.49365161  3680
STARLINK-35107          
1 65464U 25195G   25266.25003472 -.00129516  00000+0 -23546-2 0  9998
2 65464  53.1595 320.0756 0001495  67.8228 142.2362 15.49365297  3688
STARLINK-35169          
1 65465U 25195H   25266.25003472 -.00149422  00000+0 -27234-2 0  9995
2 65465  53.1595 320.0676 0001549  79.1046 134.7840 15.49377569  3686
STARLINK-35027          
1 65466U 25195J   25266.25003472 -.00126212  00000+0 -22935-2 0  9991
2 65466  53.1596 320.0636 0001464  80.8693 134.9422 15.49363210  3638
STARLINK-34816          
1 65467U 25195K   25266.25003472 -.00127746  00000+0 -23219-2 0  9991
2 65467  53.1596 320.0599 0001547  82.4585 135.2714 15.49363290  3633
STARLINK-35033          
1 65468U 25195L   25266.25003472 -.00125916  00000+0 -22879-2 0  9990
2 65468  53.1595 320.0486 0001468  65.6359 157.8383 15.49365004  3639
STARLINK-34924          
1 65469U 25195M   25266.25003472 -.00142677  00000+0 -25982-2 0  9992
2 65469  53.1594 320.0438 0001567  82.8209 142.5682 15.49374395  3637
STARLINK-34829          
1 65470U 25195N   25266.25003472 -.00139262  00000+0 -25352-2 0  9991
2 65470  53.1595 320.0718 0001442  84.8386 127.1380 15.49369688  3634
STARLINK-34888          
1 65471U 25195P   25266.25003472 -.00152100  00000+0 -27734-2 0  9994
2 65471  53.1598 320.0562 0001643  82.4403 137.2032 15.49376675  3632
STARLINK-34799          
1 65472U 25195Q   25266.25003472 -.00119490  00000+0 -21691-2 0  9996
2 65472  53.1596 320.0513 0001586  82.2238 139.3326 15.49362450  3632
STARLINK-34762          
1 65473U 25195R   25266.25003472 -.00101940  00000+0 -18470-2 0  9999
2 65473  53.1592 320.0355 0001458  81.2102 148.0449 15.49335515  3635
STARLINK-34998          
1 65474U 25195S   25266.25003472 -.00112712  00000+0 -20456-2 0  9996
2 65474  53.1592 320.0313 0001408  81.6162 149.5578 15.49339229  3517
STARLINK-34832          
1 65475U 25195T   25266.25003472 -.00130336  00000+0 -23699-2 0  9991
2 65475  53.1595 320.0389 0001425  81.9901 145.3227 15.49364803  3631
STARLINK-35098          
1 65476U 25195U   25266.25003472 -.00144119  00000+0 -26251-2 0  9993
2 65476  53.1593 320.0282 0001408  69.7109 163.3487 15.49373465  3684
STARLINK-35071          
1 65477U 25195V   25266.25003472 -.00148965  00000+0 -27150-2 0  9996
2 65477  53.1595 320.0236 0001602  83.9465 151.0285 15.49376612  3682
STARLINK-35093          
1 65478U 25195W   25266.25003472 -.00130215  00000+0 -23676-2 0  9995
2 65478  53.1593 320.0151 0001444  83.7429 155.0705 15.49364900  3687
STARLINK-35096          
1 65479U 25195X   25266.20691554 -.00048517  00000+0 -86745-3 0  9995
2 65479  53.1591 320.2170 0001737  45.1555 314.9595 15.49380056  4275
STARLINK-35040          
1 65480U 25195Y   25266.25003472 -.01776284  00000+0 -23491-1 0  9995
2 65480  53.1595 319.5104 0001305  71.3290  56.4718 15.60764058  3687
STARLINK-35042          
1 65481U 25195Z   25266.25003472 -.00098334  00000+0 -17806-2 0  9992
2 65481  53.1594 320.0191 0001557  83.5045 153.4156 15.49334500  3688
STARLINK-35038          
1 65482U 25195AA  25266.25003472 -.01774886  00000+0 -23473-1 0  9993
2 65482  53.1595 319.5063 0001254  73.5307  56.1895 15.60762056  3688
STARLINK-35037          
1 65483U 25195AB  25266.25003472 -.01772983  00000+0 -23445-1 0  9999
2 65483  53.1594 319.5030 0001365  72.1372  59.4996 15.60760724  3680
